0 FENGYUN 1C DEB
1 30436U 99025AEX 13281.40358641  .00001521  00000-0  10590-2 0   129
2 30436 098.4142 076.1111 0148081 116.0248 298.9788 13.94888684340554
0 FENGYUN 1C DEB
1 30436U 99025AEX 13282.70786418  .00001667  00000-0  11577-2 0   138
2 30436 098.4137 077.3019 0147977 112.3978 008.5438 13.94897025340736
0 FENGYUN 1C DEB
1 30436U 99025AEX 13283.71315126  .00002181  00000-0  15066-2 0   144
2 30436 098.4136 078.2193 0148024 109.6044 016.7176 13.94900040340872
0 FENGYUN 1C DEB
1 30436U 99025AEX 13285.86177472  .00002207  00000-0  15246-2 0   163
2 30436 098.4132 080.1801 0147975 103.6159 006.3572 13.94907158341177
0 FENGYUN 1C DEB
1 30436U 99025AEX 13287.14868196  .00002659  00000-0  18310-2 0   173
2 30436 098.4132 081.3544 0147912 100.0277 348.7917 13.94911011341356
0 FENGYUN 1C DEB
1 30436U 99025AEX 13288.15003762  .00003440  00000-0  23610-2 0   184
2 30436 098.4134 082.2683 0147855 097.2319 337.2947 13.94918555341493
0 FENGYUN 1C DEB
1 30436U 99025AEX 13289.22663595  .00003021  00000-0  20770-2 0   199
2 30436 098.4138 083.2511 0147776 094.2250 343.6731 13.94924396341640
0 FENGYUN 1C DEB
1 30436U 99025AEX 13290.23086878  .00002920  00000-0  20085-2 0   203
2 30436 098.4141 084.1677 0147692 091.4252 346.6659 13.94930188341788
0 FENGYUN 1C DEB
1 30436U 99025AEX 13291.37430311  .00002543  00000-0  17524-2 0   210
2 30436 098.4145 085.2116 0147598 088.2477 328.7067 13.94936757341940
0 FENGYUN 1C DEB
1 30436U 99025AEX 13292.37903257  .00002474  00000-0  17057-2 0   220
2 30436 098.4148 086.1288 0147482 085.4471 334.2384 13.94941924342080
0 FENGYUN 1C DEB
1 30436U 99025AEX 13294.17744759  .00002544  00000-0  17530-2 0   235
2 30436 098.4149 087.7704 0147307 080.4415 005.5247 13.94950224342337
0 FENGYUN 1C DEB
1 30436U 99025AEX 13295.39031037  .00002615  00000-0  18018-2 0   240
2 30436 098.4148 088.8776 0147193 077.0650 336.3120 13.94955998342500
